id,spkid,full_name,pdes,name,prefix,neo,pha,H,G,M1,M2,K1,K2,PC,diameter,extent,albedo,rot_per,GM,BV,UB,IR,spec_B,spec_T,H_sigma,diameter_sigma,orbit_id,epoch,epoch_mjd,epoch_cal,equinox,e,a,q,i,om,w,ma,ad,n,tp,tp_cal,per,per_y,moid,moid_ld,t_jup,sigma_e,sigma_a,sigma_q,sigma_i,sigma_om,sigma_w,sigma_ma,sigma_ad,sigma_n,sigma_tp,sigma_per,class,producer,data_arc,first_obs,last_obs,n_obs_used,n_del_obs_used,n_dop_obs_used,condition_code,rms,two_body,A1,A2,A3,DT
a0014736,2014736, 14736 (2000 DW97),14736,0,0,N,N,13.1,0,14142.00,131.00,0,0,0,15773.13,0,0.0358,0,0,0,0,0,0,0,0,1421.52,JPL 12,2457200.5,57200,20150627,J2000,0.138530374,3.057145868,2.633638306,9.231983215,10.0137256,6.135634352,76.33885942,3.480653431,0.184386802,2456786.485,20140508.99,1952.417396,5.345427504,1.63517,636.3591089,3.201,9.39E-08,3.57E-08,0.000000284,0.00000944,0.000045112,0.000051481,0.000028136,4.07E-08,3.23E-09,0.0001509,0.000034225,MBA,Otto Matic,14062,28028,42090,854,0,0,0,0.45,0,0,0,0,0
a0014795,2014795, 14795 Syoyou (1977 EE7),14795,Syoyou,0,N,N,13.2,0,10100.00,190.00,0,0,0,10309.39,0,0,3.43,0,0,0,0,0,0,0,1234.00,JPL 14,2457200.5,57200,20150627,J2000,0.234814375,3.045252967,2.330183796,2.753078879,346.611294,301.225312,341.6263582,3.760322139,0.18546801,2457299.566,20151004.07,1941.035549,5.314265707,1.31517,511.8247089,3.194,5.31E-08,2.91E-08,0.000000171,0.00000665,0.00011291,0.00011365,0.000015043,3.59E-08,2.65E-09,0.00008172,0.000027786,MBA,Otto Matic,14048,28196,42244,1160,0,0,0,0.49,0,0,0,0,0
a0014822,2014822, 14822 (1984 SR5),14822,0,0,N,N,12.9,0,16786.00,157.00,0,0,0,17740.88,0,0.0156,0,0,0,0,0,0,0,0,859.57,JPL 14,2457200.5,57200,20150627,J2000,0.105489759,3.241795496,2.899819271,5.447968858,17.2909769,347.5515561,81.9304315,3.583771721,0.16885956,2456715.301,20140226.8,2131.949183,5.836958749,1.89839,738.7964363,3.168,0.000000062,3.06E-08,0.000000196,0.00000711,0.00006366,0.000070292,0.000031408,3.38E-08,2.39E-09,0.00018513,0.000030139,OMB,Otto Matic,11138,30946,42084,1112,0,0,0,0.55,0,0,0,0,0
a0015161,2015161, 15161 (2000 FQ48),15161,0,0,N,N,11.5,0,35539.00,304.00,0,0,0,34645.91,0,0.0999,6.663,0,0,0,0,0,0,0,1741.28,JPL 18,2457200.5,57200,20150627,J2000,0.207196693,3.210973263,2.545670223,18.17145002,230.9218468,98.85421648,123.2717212,3.876276303,0.171296717,2456480.861,20130707.36,2101.616458,5.753912274,1.61414,628.1748638,3.081,5.22E-08,3.14E-08,0.000000169,0.00000746,0.00001892,0.000026371,0.000016449,0.000000038,2.52E-09,0.000095139,0.000030868,OMB,Otto Matic,23619,18460,42079,1007,0,0,0,0.5,0,0,0,0,0
a0015278,2015278, 15278 Paquet (1991 PG7),15278,Paquet,0,N,N,11.5,0,25420.00,300.00,0,0,0,26851.19,0,0.0307,0,0,0,0,0,0,0,0,1397.35,JPL 7,2457200.5,57200,20150627,J2000,0.216471372,3.993924697,3.129354339,9.287757197,344.770861,64.79675961,293.7237543,4.858495056,0.123482174,2457737.227,20161214.73,2915.400576,7.981931763,2.15502,838.6691334,2.991,0.00000007,0.000000073,0.000000313,0.00000934,0.000039214,0.00004548,0.000027139,8.88E-08,3.39E-09,0.00022993,0.000079929,OMB,Otto Matic,22560,19703,42263,1026,0,0,0,0.51,0,0,0,0,0
a0015350,2015350, 15350 Naganuma (1994 VB2),15350,Naganuma,0,N,N,14,0,4357.00,70.00,0,0,0,4087.52,0,0,2.5835,0,0,0,0,0,0,0,342.57,JPL 16,2457200.5,57200,20150627,J2000,0.275437764,2.379759074,1.724283555,4.622381066,197.9286542,204.3550736,225.4087761,3.035234594,0.268475455,2457701.817,20161109.32,1340.904704,3.671196998,0.734274,285.7574126,3.483,5.16E-08,1.44E-08,0.000000124,0.00000599,0.000055337,0.000056476,0.0000147,1.84E-08,2.44E-09,0.000058599,0.000012164,MBA,Otto Matic,7537,34641,42178,1157,0,0,0,0.52,0,0,0,0,0
a0015410,2015410, 15410 (1997 YZ),15410,0,0,N,N,12.2,0,22900.00,110.00,0,0,0,23021.71,0,0.0514,0,0,0,0,0,0,0,0,604.44,JPL 15,2457200.5,57200,20150627,J2000,0.098235854,3.11118571,2.805555724,17.1505644,237.1102066,298.4719513,313.4726602,3.416815697,0.179603655,2457459.556,20160312.06,2004.41355,5.487785216,1.84956,719.7932652,3.143,7.43E-08,3.88E-08,0.000000237,0.00000918,0.00002353,0.000052194,0.000049604,4.26E-08,3.36E-09,0.00027754,0.000037463,MBA,Otto Matic,10344,31719,42063,907,0,0,0,0.46,0,0,0,0,0
a0015436,2015436, 15436 (1998 VU30),15436,0,0,N,N,9,0,100900.00,3420.00,0,0,0,107576.40,0,0.0381,8.97,0,0,0,0,0,0,0,7687.29,JPL 16,2457200.5,57200,20150627,J2000,0.043814278,5.209152404,4.980917154,16.2652299,253.4314498,179.9834936,132.0228753,5.437387654,0.082899799,2455607.94,20110215.44,4342.591945,11.88936878,3.9963,1555.240071,2.918,9.23E-08,0.000000166,0.000000467,0.00000839,0.000033363,0.00014282,0.00013239,0.000000173,3.95E-09,0.0016051,0.00020715,TJN,Otto Matic,19167,22974,42141,759,0,0,0,0.53,0,0,0,0,0
a0015440,2015440, 15440 (1998 WX4),15440,0,0,N,N,9.5,0,71440.00,1190.00,0,0,0,77397.51,0,0.0916,0,0,0,0,0,0,0,0,5081.75,JPL 21,2457200.5,57200,20150627,J2000,0.021719837,5.298386219,5.183306136,28.7369353,120.5707871,282.4346778,157.1616549,5.413466301,0.080814382,2455255.776,20100228.28,4454.652647,12.19617426,4.26879,1661.285004,2.751,7.59E-08,0.000000157,0.000000363,0.00000848,0.000013414,0.00019626,0.00019565,0.000000161,3.60E-09,0.0024299,0.00019834,TJN,Otto Matic,23267,18960,42227,861,0,0,0,0.54,0,0,0,0,0
a0015457,2015457, 15457 (1998 YN6),15457,0,0,N,N,12.4,0,18903.00,91.00,0,0,0,16856.31,0,0.0289,0,0,0,0,0,0,0,0,2468.72,JPL 12,2457200.5,57200,20150627,J2000,0.074326491,3.210588082,2.971956336,22.96656643,125.3224551,36.14082073,283.9447394,3.449219827,0.171327544,2457644.417,20160912.92,2101.238311,5.752876965,2.00637,780.8190129,3.063,6.71E-08,0.000000044,0.000000224,0.00000787,0.000021634,0.000068554,0.000070059,4.72E-08,3.52E-09,0.00041323,0.000043157,OMB,Otto Matic,7164,34872,42036,709,0,0,0,0.51,0,0,0,0,0
a0015529,2015529, 15529 (2000 AA80),15529,0,0,N,N,11.4,0,17710.00,1090.00,0,0,0,17495.41,0,0,0,0,0,0,0,0,0,0,3209.19,JPL 13,2457200.5,57200,20150627,J2000,0.026528981,5.25446481,5.115069215,5.085885691,169.5582021,84.33538931,316.5319524,5.393860406,0.081829772,2457731.701,20161209.2,4399.376784,12.04483719,4.10519,1597.616792,2.991,5.93E-08,0.000000134,0.000000386,0.00000826,0.000063964,0.00017137,0.00015925,0.000000137,3.12E-09,0.0019478,0.00016787,TJN,Otto Matic,22772,19368,42140,902,0,0,0,0.52,0,0,0,0,0
a0015562,2015562, 15562 (2000 GF48),15562,0,0,N,N,12.1,0,21746.00,264.00,0,0,0,21444.86,0,0.0563,0,0,0,0,0,0,0,0,965.07,JPL 13,2457200.5,57200,20150627,J2000,0.198681613,3.146097021,2.521025389,11.58229606,24.10740289,217.8291888,236.5963404,3.771168653,0.176622451,2457899.186,20170525.69,2038.245979,5.580413357,1.52083,591.8614111,3.147,7.29E-08,3.67E-08,0.000000235,0.00000974,0.000030396,0.00003769,0.000025507,0.000000044,3.09E-09,0.0001501,0.000035711,MBA,Otto Matic,10780,31310,42090,1048,0,0,0,0.47,0,0,0,0,0
a0015570,2015570, 15570 (2000 GT60),15570,0,0,N,N,14.3,0,8194.00,45.00,0,0,0,8170.33,0,0,0,0,0,0,0,0,0,0,512.99,JPL 19,2457200.5,57200,20150627,J2000,0.129361896,2.452630526,2.135353592,1.469675478,185.8578878,187.4301109,184.7894933,2.76990746,0.256599544,2457883.317,20170509.82,1402.964302,3.84110692,1.13586,442.0426362,3.483,6.56E-08,0.000000014,0.000000155,0.00000547,0.00014233,0.00014339,0.000015916,1.58E-08,2.20E-09,0.000064672,0.00001202,MBA,Otto Matic,13461,28736,42197,1349,0,0,0,0.55,0,0,0,0,0
a0015732,2015732, 15732 Vitusbering (1990 VZ5),15732,Vitusbering,0,N,N,12.5,0,14901.00,212.00,0,0,0,16654.91,0,0.0408,9.6044,0,0,0,0,0,0,0,892.36,JPL 16,2457200.5,57200,20150627,J2000,0.05498285,3.169717638,2.99543753,10.4149376,122.5236535,190.4223082,233.4017111,3.343997746,0.174651858,2457925.361,20170620.86,2061.243465,5.643377042,1.98139,771.0975463,3.175,6.86E-08,3.66E-08,0.000000231,0.00000661,0.000034823,0.000069208,0.000062372,3.86E-08,3.02E-09,0.00036062,0.000035687,MBA,Otto Matic,9016,33175,42191,1107,0,0,0,0.51,0,0,0,0,0
a0015793,2015793, 15793 (1993 TG19),15793,0,0,N,N,14.9,0,3497.00,926.00,0,0,0,4005.72,0,0,22.4,0,0,0,0,0,0,0,750.95,JPL 12,2457200.5,57200,20150627,J2000,0.186763673,2.411292465,1.960950628,4.249005386,49.42266056,221.2201695,14.73454492,2.861634301,0.263226277,2457144.523,20150502.02,1367.644617,3.74440689,0.947152,368.6031438,3.492,5.08E-08,1.49E-08,0.00000012,0.0000057,0.000074646,0.00007627,0.000016114,1.77E-08,2.44E-09,0.000061164,0.000012665,MBA,Otto Matic,12548,29714,42262,852,0,0,0,0.56,0,0,0,0,0
a0015811,2015811, 15811 Nusslein-Volhard (1994 ND1),15811,Nusslein-Volhard,0,N,N,12.7,0,15520.00,133.00,0,0,0,16830.26,0,0.0617,0,0,0,0,0,0,0,0,685.76,JPL 13,2457200.5,57200,20150627,J2000,0.165717571,3.211765709,2.679519695,9.585444408,225.7523223,73.69459348,224.1166613,3.744011722,0.171233324,2457994.057,20170828.56,2102.394503,5.756042444,1.68416,655.4245472,3.148,5.65E-08,4.12E-08,0.000000174,0.00000642,0.00003621,0.000043321,0.000028965,0.000000048,3.29E-09,0.00017898,0.000040444,OMB,Otto Matic,21759,20353,42112,1056,0,0,0,0.48,0,0,0,0,0
a0015920,2015920, 15920 (1997 UB25),15920,0,0,N,N,14.4,0,3082.00,31.00,0,0,0,3643.72,0,0,0,0,0,0,0,0,0,0,621.35,JPL 16,2457200.5,57200,20150627,J2000,0.216967412,2.20369933,1.72556839,4.052942542,262.3571341,75.17609285,187.872768,2.68183027,0.30128365,2457771.813,20170118.31,1194.887276,3.271423068,0.72173,280.8756641,3.629,5.19E-08,9.62E-09,0.000000116,0.00000518,0.000076675,0.000077537,0.000011463,1.17E-08,1.97E-09,0.000039072,0.00000782,MBA,Otto Matic,11157,31007,42164,941,0,0,0,0.52,0,0,0,0,0
a0015951,2015951, 15951 (1998 BB2),15951,0,0,N,N,12.1,0,16330.00,120.00,0,0,0,17091.45,0,0.0541,0,0,0,0,0,0,0,0,467.20,JPL 15,2457200.5,57200,20150627,J2000,0.127067201,3.130289206,2.732532119,17.69747453,102.0890867,159.2948797,282.5374089,3.528046293,0.177962041,2457635.776,20160904.28,2022.903298,5.538407386,1.72281,670.4659677,3.128,6.41E-08,3.69E-08,0.000000197,0.00000784,0.000021348,0.00003709,0.000033654,4.16E-08,3.15E-09,0.00019215,0.000035768,MBA,Otto Matic,9906,32221,42127,972,0,0,0,0.51,0,0,0,0,0
